start=new Date('2023-01-11T00:00:00.000Z').valueOf();
sats=[{"OBJECT_TYPE":"PAYLOAD","ELEMENT_SET_NO":"999","TIME_SYSTEM":"UTC","PERIOD":"95.437","GP_ID":"222724491","FILE":"3739267","PERIAPSIS":"539.211","APOAPSIS":"540.255","OBJECT_NAME":"STARLINK-5190","SEMIMAJOR_AXIS":"6917.868","OBJECT_ID":"2022-136AT","ARG_OF_PERICENTER":"81.5092","TLE_LINE1":"1 54092U 22136AT  23010.71372586  .00000818  00000-0  69457-4 0  9991","LAUNCH_DATE":"2022-10-20","COUNTRY_CODE":"US","CLASSIFICATION_TYPE":"U","TLE_LINE2":"2 54092  53.2162 114.4645 0000755  81.5092 278.5986 15.08844025 12777","REF_FRAME":"TEME","EPOCH":"2023-01-10T17:07:45.914304","RCS_SIZE":"LARGE","MEAN_ANOMALY":"278.5986","SITE":"AFETR","EPHEMERIS_TYPE":"0","MEAN_MOTION_DOT":"0.00000818","MEAN_MOTION":"15.08844025","REV_AT_EPOCH":"1277","NORAD_CAT_ID":"54092","MEAN_ELEMENT_THEORY":"SGP4","MEAN_MOTION_DDOT":"0.0000000000000","CENTER_NAME":"EARTH","RA_OF_ASC_NODE":"114.4645","ECCENTRICITY":"0.00007550","INCLINATION":"53.2162","BSTAR":"0.00006945700000","DECAY_DATE":null},{"OBJECT_ID":"2022-136AU","SEMIMAJOR_AXIS":"6917.890","APOAPSIS":"540.763","OBJECT_NAME":"STARLINK-5213","TLE_LINE1":"1 54093U 22136AU  23010.49657209 -.00000742  00000-0 -28558-4 0  9990","ARG_OF_PERICENTER":"65.0524","COUNTRY_CODE":"US","CLASSIFICATION_TYPE":"U","LAUNCH_DATE":"2022-10-20","OBJECT_TYPE":"PAYLOAD","ELEMENT_SET_NO":"999","TIME_SYSTEM":"UTC","PERIOD":"95.438","GP_ID":"222665869","PERIAPSIS":"538.746","FILE":"3739038","CENTER_NAME":"EARTH","MEAN_MOTION_DDOT":"0.0000000000000","RA_OF_ASC_NODE":"115.2445","INCLINATION":"53.2174","ECCENTRICITY":"0.00014580","BSTAR":"-0.00002855800000","DECAY_DATE":null,"TLE_LINE2":"2 54093  53.2174 115.2445 0001458  65.0524 295.0620 15.08836952 12742","REF_FRAME":"TEME","MEAN_ANOMALY":"295.0620","RCS_SIZE":"LARGE","EPOCH":"2023-01-10T11:55:03.828576","EPHEMERIS_TYPE":"0","MEAN_MOTION_DOT":"-0.00000742","SITE":"AFETR","MEAN_MOTION":"15.08836952","REV_AT_EPOCH":"1274","NORAD_CAT_ID":"54093","MEAN_ELEMENT_THEORY":"SGP4"},{"APOAPSIS":"540.755","OBJECT_NAME":"STARLINK-5219","OBJECT_ID":"2022-136AV","SEMIMAJOR_AXIS":"6917.911","LAUNCH_DATE":"2022-10-20","COUNTRY_CODE":"US","CLASSIFICATION_TYPE":"U","ARG_OF_PERICENTER":"62.8276","TLE_LINE1":"1 54094U 22136AV  23010.57019131 -.00001581  00000-0 -81297-4 0  9997","TIME_SYSTEM":"UTC","ELEMENT_SET_NO":"999","OBJECT_TYPE":"PAYLOAD","PERIAPSIS":"538.797","FILE":"3739038","GP_ID":"222666097","PERIOD":"95.438","ECCENTRICITY":"0.00014150","INCLINATION":"53.2180","RA_OF_ASC_NODE":"114.9936","MEAN_MOTION_DDOT":"0.0000000000000","CENTER_NAME":"EARTH","DECAY_DATE":null,"BSTAR":"-0.00008129700000","EPOCH":"2023-01-10T13:41:04.529184","RCS_SIZE":"LARGE","MEAN_ANOMALY":"297.2860","REF_FRAME":"TEME","TLE_LINE2":"2 54094  53.2180 114.9936 0001415  62.8276 297.2860 15.08830077 12756","NORAD_CAT_ID":"54094","MEAN_ELEMENT_THEORY":"SGP4","REV_AT_EPOCH":"1275","MEAN_MOTION":"15.08830077","SITE":"AFETR","EPHEMERIS_TYPE":"0","MEAN_MOTION_DOT":"-0.00001581"},{"TLE_LINE1":"1 54095U 22136AW  23010.68680736 -.00001164  00000-0 -57853-4 0  9993","ARG_OF_PERICENTER":"35.3601","CLASSIFICATION_TYPE":"U","COUNTRY_CODE":"US","LAUNCH_DATE":"2022-10-20","SEMIMAJOR_AXIS":"6922.858","OBJECT_ID":"2022-136AW","APOAPSIS":"546.086","OBJECT_NAME":"STARLINK-5193","PERIOD":"95.541","GP_ID":"222723819","FILE":"3739267","PERIAPSIS":"543.361","ELEMENT_SET_NO":"999","OBJECT_TYPE":"PAYLOAD","TIME_SYSTEM":"UTC","BSTAR":"-0.00005785300000","DECAY_DATE":null,"CENTER_NAME":"EARTH","MEAN_MOTION_DDOT":"0.0000000000000","RA_OF_ASC_NODE":"114.2950","INCLINATION":"53.2188","ECCENTRICITY":"0.00019680","EPHEMERIS_TYPE":"0","MEAN_MOTION_DOT":"-0.00001164","SITE":"AFETR","MEAN_MOTION":"15.07212866","REV_AT_EPOCH":"1277","MEAN_ELEMENT_THEORY":"SGP4","NORAD_CAT_ID":"54095","TLE_LINE2":"2 54095  53.2188 114.2950 0001968  35.3601 324.7521 15.07212866 12775","REF_FRAME":"TEME","MEAN_ANOMALY":"324.7521","EPOCH":"2023-01-10T16:29:00.155904","RCS_SIZE":"LARGE"},{"BSTAR":"-0.00000311530000","DECAY_DATE":null,"CENTER_NAME":"EARTH","MEAN_MOTION_DDOT":"0.0000000000000","RA_OF_ASC_NODE":"115.2678","INCLINATION":"53.2170","ECCENTRICITY":"0.00014840","MEAN_MOTION_DOT":"-0.00000338","EPHEMERIS_TYPE":"0","SITE":"AFETR","MEAN_MOTION":"15.08840412","REV_AT_EPOCH":"1274","NORAD_CAT_ID":"54096","MEAN_ELEMENT_THEORY":"SGP4","REF_FRAME":"TEME","TLE_LINE2":"2 54096  53.2170 115.2678 0001484  64.6470 295.4675 15.08840412 12743","MEAN_ANOMALY":"295.4675","EPOCH":"2023-01-10T12:00:22.083840","RCS_SIZE":"LARGE","TLE_LINE1":"1 54096U 22136AX  23010.50025560 -.00000338  00000-0 -31153-5 0  9991","ARG_OF_PERICENTER":"64.6470","CLASSIFICATION_TYPE":"U","COUNTRY_CODE":"US","LAUNCH_DATE":"2022-10-20","OBJECT_ID":"2022-136AX","SEMIMAJOR_AXIS":"6917.879","APOAPSIS":"540.771","OBJECT_NAME":"STARLINK-5188","PERIOD":"95.438","GP_ID":"222666534","FILE":"3739038","PERIAPSIS":"538.718","ELEMENT_SET_NO":"999","OBJECT_TYPE":"PAYLOAD","TIME_SYSTEM":"UTC"},{"INCLINATION":"53.2174","ECCENTRICITY":"0.00044240","RA_OF_ASC_NODE":"102.1744","CENTER_NAME":"EARTH","MEAN_MOTION_DDOT":"0.0000000000000","DECAY_DATE":null,"BSTAR":"0.00000825300000","MEAN_ANOMALY":"354.9209","RCS_SIZE":"LARGE","EPOCH":"2023-01-10T13:57:34.422624","REF_FRAME":"TEME","TLE_LINE2":"2 54097  53.2174 102.1744 0004424   5.1856 354.9209 15.73197706 12930","NORAD_CAT_ID":"54097","MEAN_ELEMENT_THEORY":"SGP4","REV_AT_EPOCH":"1293","MEAN_MOTION":"15.73197706","EPHEMERIS_TYPE":"0","MEAN_MOTION_DOT":"0.00000533","SITE":"AFETR","OBJECT_ID":"2022-136AY","SEMIMAJOR_AXIS":"6727.902","OBJECT_NAME":"STARLINK-5197","APOAPSIS":"352.743","COUNTRY_CODE":"US","CLASSIFICATION_TYPE":"U","LAUNCH_DATE":"2022-10-20","TLE_LINE1":"1 54097U 22136AY  23010.58164841  .00000533  00000-0  82530-5 0  9996","ARG_OF_PERICENTER":"5.1856","TIME_SYSTEM":"UTC","ELEMENT_SET_NO":"999","OBJECT_TYPE":"PAYLOAD","FILE":"3739267","PERIAPSIS":"346.790","GP_ID":"222724266","PERIOD":"91.533"},{"OBJECT_ID":"2022-136AZ","SEMIMAJOR_AXIS":"6917.889","APOAPSIS":"540.939","OBJECT_NAME":"STARLINK-5217","COUNTRY_CODE":"US","CLASSIFICATION_TYPE":"U","LAUNCH_DATE":"2022-10-20","TLE_LINE1":"1 54098U 22136AZ  23010.55176044 -.00001374  00000-0 -68238-4 0  9996","ARG_OF_PERICENTER":"43.2709","TIME_SYSTEM":"UTC","OBJECT_TYPE":"PAYLOAD","ELEMENT_SET_NO":"999","PERIAPSIS":"538.568","FILE":"3739038","GP_ID":"222665622","PERIOD":"95.438","INCLINATION":"53.2170","ECCENTRICITY":"0.00017140","RA_OF_ASC_NODE":"114.8775","CENTER_NAME":"EARTH","MEAN_MOTION_DDOT":"0.0000000000000","DECAY_DATE":null,"BSTAR":"-0.00006823800000","MEAN_ANOMALY":"316.8418","RCS_SIZE":"LARGE","EPOCH":"2023-01-10T13:14:32.102016","TLE_LINE2":"2 54098  53.2170 114.8775 0001714  43.2709 316.8418 15.08837262 12755","REF_FRAME":"TEME","NORAD_CAT_ID":"54098","MEAN_ELEMENT_THEORY":"SGP4","REV_AT_EPOCH":"1275","MEAN_MOTION":"15.08837262","EPHEMERIS_TYPE":"0","MEAN_MOTION_DOT":"-0.00001374","SITE":"AFETR"},{"LAUNCH_DATE":"2022-10-20","CLASSIFICATION_TYPE":"U","COUNTRY_CODE":"US","ARG_OF_PERICENTER":"51.0636","TLE_LINE1":"1 54099U 22136BA  23010.67686898 -.00000304  00000-0 -97281-6 0  9997","OBJECT_NAME":"STARLINK-5198","APOAPSIS":"540.955","SEMIMAJOR_AXIS":"6917.886","OBJECT_ID":"2022-136BA","FILE":"3739267","PERIAPSIS":"538.547","PERIOD":"95.438","GP_ID":"222723357","TIME_SYSTEM":"UTC","ELEMENT_SET_NO":"999","OBJECT_TYPE":"PAYLOAD","BSTAR":"-0.00000097281000","DECAY_DATE":null,"RA_OF_ASC_NODE":"114.2349","ECCENTRICITY":"0.00017410","INCLINATION":"53.2153","MEAN_MOTION_DDOT":"0.0000000000000","CENTER_NAME":"EARTH","REV_AT_EPOCH":"1277","NORAD_CAT_ID":"54099","MEAN_ELEMENT_THEORY":"SGP4","SITE":"AFETR","EPHEMERIS_TYPE":"0","MEAN_MOTION_DOT":"-0.00000304","MEAN_MOTION":"15.08838140","REF_FRAME":"TEME","TLE_LINE2":"2 54099  53.2153 114.2349 0001741  51.0636 309.0511 15.08838140 12770","RCS_SIZE":"LARGE","EPOCH":"2023-01-10T16:14:41.479872","MEAN_ANOMALY":"309.0511"},{"PERIAPSIS":"538.748","FILE":"3739038","GP_ID":"222666971","PERIOD":"95.438","TIME_SYSTEM":"UTC","OBJECT_TYPE":"PAYLOAD","ELEMENT_SET_NO":"999","CLASSIFICATION_TYPE":"U","COUNTRY_CODE":"US","LAUNCH_DATE":"2022-10-20","TLE_LINE1":"1 54100U 22136BB  23010.55913115 -.00000262  00000-0  16260-5 0  9991","ARG_OF_PERICENTER":"59.6081","SEMIMAJOR_AXIS":"6917.896","OBJECT_ID":"2022-136BB","APOAPSIS":"540.774","OBJECT_NAME":"STARLINK-5185","NORAD_CAT_ID":"54100","MEAN_ELEMENT_THEORY":"SGP4","REV_AT_EPOCH":"1275","MEAN_MOTION":"15.08834921","EPHEMERIS_TYPE":"0","MEAN_MOTION_DOT":"-0.00000262","SITE":"AFETR","MEAN_ANOMALY":"300.5056","EPOCH":"2023-01-10T13:25:08.931360","RCS_SIZE":"LARGE","REF_FRAME":"TEME","TLE_LINE2":"2 54100  53.2188 114.9250 0001464  59.6081 300.5056 15.08834921 12750","DECAY_DATE":null,"BSTAR":"0.00000162600000","INCLINATION":"53.2188","ECCENTRICITY":"0.00014640","RA_OF_ASC_NODE":"114.9250","CENTER_NAME":"EARTH","MEAN_MOTION_DDOT":"0.0000000000000"},{"TIME_SYSTEM":"UTC","ELEMENT_SET_NO":"999","OBJECT_TYPE":"PAYLOAD","PERIAPSIS":"415.828","FILE":"3739267","PERIOD":"92.912","GP_ID":"222724713","OBJECT_ID":"2022-136BC","SEMIMAJOR_AXIS":"6795.267","APOAPSIS":"418.436","OBJECT_NAME":"STARLINK-5204","COUNTRY_CODE":"US","CLASSIFICATION_TYPE":"U","LAUNCH_DATE":"2022-10-20","TLE_LINE1":"1 54101U 22136BC  23010.91667824 -.00016853  00000-0 -28983-3 0  9992","ARG_OF_PERICENTER":"48.8758","TLE_LINE2":"2 54101  53.2131 101.6456 0001919  48.8758 211.1847 15.49861863  1300","REF_FRAME":"TEME","MEAN_ANOMALY":"211.1847","EPOCH":"2023-01-10T22:00:00.999936","RCS_SIZE":"LARGE","REV_AT_EPOCH":"130","MEAN_ELEMENT_THEORY":"SGP4","NORAD_CAT_ID":"54101","MEAN_MOTION_DOT":"-0.00016853","EPHEMERIS_TYPE":"0","SITE":"AFETR","MEAN_MOTION":"15.49861863","RA_OF_ASC_NODE":"101.6456","INCLINATION":"53.2131","ECCENTRICITY":"0.00019190","CENTER_NAME":"EARTH","MEAN_MOTION_DDOT":"0.0000000000000","BSTAR":"-0.00028983000000","DECAY_DATE":null}];
